KUIPER-00252            
1 67157U 25301AA  26010.62020781  .00027043  00000+0  79367-3 0  9992
2 67157  51.8662 346.0475 0009901 196.0608 164.0065 15.34919533  4801
KUIPER-00261            
1 67158U 25301AB  26009.23450330  .00051937  00000+0  14562-2 0  9999
2 67158  51.8702 352.5218 0006048 171.1116 188.9978 15.36065772  4594
KUIPER-00265            
1 67159U 25301AC  26010.91668981 -.01037320  00000+0 -43169-1 0  9997
2 67159  51.8793 344.5694 0001442 145.5441  96.1635 15.26110318  4881
